{"type": "FeatureCollection", "features": [ {"type": "Feature", "properties": {"norad_id": 42969, "name": "SENTINEL-5P", "group": "resource", "lat": -71.18096374858607, "lon": -51.96447478340291, "alt_km": 834.8946317628006, "timestamp": "2025-12-08T10:52:02.606923+00:00", "meta": {"OBJECT_NAME": "SENTINEL-5P", "OBJECT_ID": "2017-064A", "EPOCH": "2025-12-07T19:59:13.864704", "MEAN_MOTION": 14.19515645, "ECCENTRICITY": 9.594e-05, "INCLINATION": 98.7778, "RA_OF_ASC_NODE": 280.4607, "ARG_OF_PERICENTER": 86.806, "MEAN_ANOMALY": 273.3226, "EPHEMERIS_TYPE": 0, "CLASSIFICATION_TYPE": "U", "NORAD_CAT_ID": 42969, "ELEMENT_SET_NO": 999, "REV_AT_EPOCH": 42241, "BSTAR": 0.00010747634, "MEAN_MOTION_DOT": 1.82e-06, "MEAN_MOTION_DDOT": 0}, "tle": {"line1": "1 42969U 17064A   25341.83279936  .00000182  00000+0  10748-3 0  9993", "line2": "2 42969  98.7778 280.4607 0000959  86.8060 273.3226 14.19515645422415"}}, "geometry": {"type": "Point", "coordinates": [-51.96447478340291, -71.18096374858607]}}, {"type": "Feature", "properties": {"norad_id": 42987, "name": "SKYSAT-C11", "group": "resource", "lat": -50.973113656519836, "lon": -69.40587014275692, "alt_km": 432.35911617828606, "timestamp": "2025-12-08T10:52:02.606933+00:00", "meta": {"OBJECT_NAME": "SKYSAT-C11", "OBJECT_ID": "2017-068A", "EPOCH": "2025-12-07T23:00:15.061824", "MEAN_MOTION": 15.47149925, "ECCENTRICITY": 9.374e-05, "INCLINATION": 97.4145, "RA_OF_ASC_NODE": 119.3333, "ARG_OF_PERICENTER": 107.5092, "MEAN_ANOMALY": 252.626, "EPHEMERIS_TYPE": 0, "CLASSIFICATION_TYPE": "U", "NORAD_CAT_ID": 42987, "ELEMENT_SET_NO": 999, "REV_AT_EPOCH": 45357, "BSTAR": 0.00050144017, "MEAN_MOTION_DOT": 0.000254, "MEAN_MOTION_DDOT": 0}, "tle": {"line1": "1 42987U 17068A   25341.95850766  .00025400  00000+0  50144-3 0  9990", "line2": "2 42987  97.4145 119.3333 0000937 107.5092 252.6260 15.47149925453572"}}, "geometry": {"type": "Point", "coordinates": [-69.40587014275692, -50.973113656519836]}}, {"type": "Feature", "properties": {"norad_id": 42988, "name": "SKYSAT-C10", "group": "resource", "lat": -8.134574314305432, "lon": -67.77563122005476, "alt_km": 473.1056065498533, "timestamp": "2025-12-08T10:52:02.606943+00:00", "meta": {"OBJECT_NAME": "SKYSAT-C10", "OBJECT_ID": "2017-068B", "EPOCH": "2025-12-07T21:30:28.641312", "MEAN_MOTION": 15.31905216, "ECCENTRICITY": 0.00052946, "INCLINATION": 97.4263, "RA_OF_ASC_NODE": 112.7347, "ARG_OF_PERICENTER": 117.2723, "MEAN_ANOMALY": 242.9058, "EPHEMERIS_TYPE": 0, "CLASSIFICATION_TYPE": "U", "NORAD_CAT_ID": 42988, "ELEMENT_SET_NO": 999, "REV_AT_EPOCH": 45305, "BSTAR": 0.00046023783, "MEAN_MOTION_DOT": 0.00014116, "MEAN_MOTION_DDOT": 0}, "tle": {"line1": "1 42988U 17068B   25341.89616483  .00014116  00000+0  46024-3 0  9994", "line2": "2 42988  97.4263 112.7347 0005294 117.2723 242.9058 15.31905216453052"}}, "geometry": {"type": "Point", "coordinates": [-67.77563122005476, -8.134574314305432]}}, {"type": "Feature", "properties": {"norad_id": 42989, "name": "SKYSAT-C9", "group": "resource", "lat": -25.652081561402998, "lon": 116.2615775383313, "alt_km": 468.4664741963252, "timestamp": "2025-12-08T10:52:02.606953+00:00", "meta": {"OBJECT_NAME": "SKYSAT-C9", "OBJECT_ID": "2017-068C", "EPOCH": "2025-12-07T20:54:25.807392", "MEAN_MOTION": 15.35863074, "ECCENTRICITY": 0.00106797, "INCLINATION": 97.4193, "RA_OF_ASC_NODE": 112.0876, "ARG_OF_PERICENTER": 103.5888, "MEAN_ANOMALY": 256.6546, "EPHEMERIS_TYPE": 0, "CLASSIFICATION_TYPE": "U", "NORAD_CAT_ID": 42989, "ELEMENT_SET_NO": 999, "REV_AT_EPOCH": 45333, "BSTAR": 0.00048253992, "MEAN_MOTION_DOT": 0.00016806, "MEAN_MOTION_DDOT": 0}, "tle": {"line1": "1 42989U 17068C   25341.87113203  .00016806  00000+0  48254-3 0  9990", "line2": "2 42989  97.4193 112.0876 0010679 103.5888 256.6546 15.35863074453332"}}, "geometry": {"type": "Point", "coordinates": [116.2615775383313, -25.652081561402998]}}, {"type": "Feature", "properties": {"norad_id": 42990, "name": "SKYSAT-C8", "group": "resource", "lat": -6.8596878229497005, "lon": 113.33441577605116, "alt_km": 470.2063049080698, "timestamp": "2025-12-08T10:52:02.606963+00:00", "meta": {"OBJECT_NAME": "SKYSAT-C8", "OBJECT_ID": "2017-068D", "EPOCH": "2025-12-07T22:21:46.869408", "MEAN_MOTION": 15.32758177, "ECCENTRICITY": 0.00019245, "INCLINATION": 97.4284, "RA_OF_ASC_NODE": 111.912, "ARG_OF_PERICENTER": 7.0155, "MEAN_ANOMALY": 353.1114, "EPHEMERIS_TYPE": 0, "CLASSIFICATION_TYPE": "U", "NORAD_CAT_ID": 42990, "ELEMENT_SET_NO": 999, "REV_AT_EPOCH": 45297, "BSTAR": 0.00045816051, "MEAN_MOTION_DOT": 0.00014427, "MEAN_MOTION_DDOT": 0}, "tle": {"line1": "1 42990U 17068D   25341.93179247  .00014427  00000+0  45816-3 0  9997", "line2": "2 42990  97.4284 111.9120 0001924   7.0155 353.1114 15.32758177452970"}}, "geometry": {"type": "Point", "coordinates": [113.33441577605116, -6.8596878229497005]}}, {"type": "Feature", "properties": {"norad_id": 42991, "name": "SKYSAT-C7", "group": "resource", "lat": -37.56534393719341, "lon": -72.28017388027428, "alt_km": 480.3107363681165, "timestamp": "2025-12-08T10:52:02.606973+00:00", "meta": {"OBJECT_NAME": "SKYSAT-C7", "OBJECT_ID": "2017-068E", "EPOCH": "2025-12-07T21:22:50.756736", "MEAN_MOTION": 15.32165709, "ECCENTRICITY": 0.00078418, "INCLINATION": 97.4292, "RA_OF_ASC_NODE": 112.9162, "ARG_OF_PERICENTER": 72.2847, "MEAN_ANOMALY": 287.925, "EPHEMERIS_TYPE": 0, "CLASSIFICATION_TYPE": "U", "NORAD_CAT_ID": 42991, "ELEMENT_SET_NO": 999, "REV_AT_EPOCH": 45303, "BSTAR": 0.00046187748, "MEAN_MOTION_DOT": 0.0001429, "MEAN_MOTION_DDOT": 0}, "tle": {"line1": "1 42991U 17068E   25341.89086524  .00014290  00000+0  46188-3 0  9999", "line2": "2 42991  97.4292 112.9162 0007841  72.2847 287.9250 15.32165709453039"}}, "geometry": {"type": "Point", "coordinates": [-72.28017388027428, -37.56534393719341]}}, {"type": "Feature", "properties": {"norad_id": 42992, "name": "SKYSAT-C6", "group": "resource", "lat": -12.518371710839444, "lon": 115.58273998911228, "alt_km": 477.35678292617104, "timestamp": "2025-12-08T10:52:02.606983+00:00", "meta": {"OBJECT_NAME": "SKYSAT-C6", "OBJECT_ID": "2017-068F", "EPOCH": "2025-12-07T22:22:34.712544", "MEAN_MOTION": 15.31336682, "ECCENTRICITY": 0.00052066, "INCLINATION": 97.4325, "RA_OF_ASC_NODE": 113.4001, "ARG_OF_PERICENTER": 95.6752, "MEAN_ANOMALY": 264.5083, "EPHEMERIS_TYPE": 0, "CLASSIFICATION_TYPE": "U", "NORAD_CAT_ID": 42992, "ELEMENT_SET_NO": 999, "REV_AT_EPOCH": 45302, "BSTAR": 0.00046918669, "MEAN_MOTION_DOT": 0.00014139, "MEAN_MOTION_DDOT": 0}, "tle": {"line1": "1 42992U 17068F   25341.93234621  .00014139  00000+0  46919-3 0  9992", "line2": "2 42992  97.4325 113.4001 0005206  95.6752 264.5083 15.31336682453025"}}, "geometry": {"type": "Point", "coordinates": [115.58273998911228, -12.518371710839444]}}, {"type": "Feature", "properties": {"norad_id": 43111, "name": "CARTOSAT-2F", "group": "resource", "lat": -76.24859467261209, "lon": 72.39450840054829, "alt_km": 515.9617381401704, "timestamp": "2025-12-08T10:52:02.606993+00:00", "meta": {"OBJECT_NAME": "CARTOSAT-2F", "OBJECT_ID": "2018-004A", "EPOCH": "2025-12-07T22:33:57.074688", "MEAN_MOTION": 15.19201081, "ECCENTRICITY": 6.881e-05, "INCLINATION": 97.4319, "RA_OF_ASC_NODE": 39.6552, "ARG_OF_PERICENTER": 139.8266, "MEAN_ANOMALY": 220.3019, "EPHEMERIS_TYPE": 0, "CLASSIFICATION_TYPE": "U", "NORAD_CAT_ID": 43111, "ELEMENT_SET_NO": 999, "REV_AT_EPOCH": 43829, "BSTAR": 0.00031622771, "MEAN_MOTION_DOT": 6.589e-05, "MEAN_MOTION_DDOT": 0}, "tle": {"line1": "1 43111U 18004A   25341.94024392  .00006589  00000+0  31623-3 0  9996", "line2": "2 43111  97.4319  39.6552 0000688 139.8266 220.3019 15.19201081438293"}}, "geometry": {"type": "Point", "coordinates": [72.39450840054829, -76.24859467261209]}}, {"type": "Feature", "properties": {"norad_id": 43259, "name": "GAOFEN-1 02", "group": "resource", "lat": -12.919936452296074, "lon": 42.10824386730757, "alt_km": 645.4926048352418, "timestamp": "2025-12-08T10:52:02.607004+00:00", "meta": {"OBJECT_NAME": "GAOFEN-1 02", "OBJECT_ID": "2018-031A", "EPOCH": "2025-12-07T21:54:52.118208", "MEAN_MOTION": 14.76464327, "ECCENTRICITY": 0.00014486, "INCLINATION": 98.0813, "RA_OF_ASC_NODE": 39.7005, "ARG_OF_PERICENTER": 231.6382, "MEAN_ANOMALY": 128.4697, "EPHEMERIS_TYPE": 0, "CLASSIFICATION_TYPE": "U", "NORAD_CAT_ID": 43259, "ELEMENT_SET_NO": 999, "REV_AT_EPOCH": 41447, "BSTAR": 0.00023989451, "MEAN_MOTION_DOT": 1.618e-05, "MEAN_MOTION_DDOT": 0}, "tle": {"line1": "1 43259U 18031A   25341.91310322  .00001618  00000+0  23989-3 0  9991", "line2": "2 43259  98.0813  39.7005 0001448 231.6382 128.4697 14.76464327414471"}}, "geometry": {"type": "Point", "coordinates": [42.10824386730757, -12.919936452296074]}}, {"type": "Feature", "properties": {"norad_id": 43260, "name": "GAOFEN-1 03", "group": "resource", "lat": 74.92018999953206, "lon": -108.0610357910639, "alt_km": 634.3667091472589, "timestamp": "2025-12-08T10:52:02.607014+00:00", "meta": {"OBJECT_NAME": "GAOFEN-1 03", "OBJECT_ID": "2018-031B", "EPOCH": "2025-12-07T23:01:04.920672", "MEAN_MOTION": 14.76420894, "ECCENTRICITY": 0.00023159, "INCLINATION": 98.0805, "RA_OF_ASC_NODE": 39.6239, "ARG_OF_PERICENTER": 342.3536, "MEAN_ANOMALY": 17.7593, "EPHEMERIS_TYPE": 0, "CLASSIFICATION_TYPE": "U", "NORAD_CAT_ID": 43260, "ELEMENT_SET_NO": 999, "REV_AT_EPOCH": 41447, "BSTAR": 0.00023471499, "MEAN_MOTION_DOT": 1.58e-05, "MEAN_MOTION_DDOT": 0}, "tle": {"line1": "1 43260U 18031B   25341.95908473  .00001580  00000+0  23471-3 0  9991", "line2": "2 43260  98.0805  39.6239 0002315 342.3536  17.7593 14.76420894414473"}}, "geometry": {"type": "Point", "coordinates": [-108.0610357910639, 74.92018999953206]}}]}